SHARC                   
1 42712U 98067LT  17345.95397219  .00008111  00000-0  10855-3 0  9994
2 42712  51.6389 228.3636 0002518 181.4661 178.6325 15.58997261 32441
